NORAD_CAT_ID,OBJECT_NAME,OBJECT_TYPE,EPOCH,MEAN_MOTION,ECCENTRICITY,INCLINATION,RA_OF_ASC_NODE,ARG_OF_PERICENTER,MEAN_ANOMALY,BSTAR,MEAN_MOTION_DOT,MEAN_MOTION_DDOT,TLE_LINE0,TLE_LINE1,TLE_LINE2,SEMIMAJOR_AXIS,PERIOD,APOGEE,PERIGEE,DECAYED
52454.0,STARLINK-3888,PAYLOAD,2023-04-19 10:30:14,15.08838371,0.0001187,53.2149,126.3288,89.5342,270.5787,0.00013144,1.805e-05,0.0,0 STARLINK-3888,1 52454U 22049D   23109.43766877  .00001805  00000-0  13144-3 0  9990,2 52454  53.2149 126.3288 0001187  89.5342 270.5787 15.08838371 52809,6917.885,95.438,540.572,538.929,0.0
52454.0,STARLINK-3888,PAYLOAD,2023-04-19 18:27:10,15.08842811,0.0001255,53.2152,124.842,89.8956,270.218,7.2917e-05,8.73e-06,0.0,0 STARLINK-3888,1 52454U 22049D   23109.76886688  .00000873  00000-0  72917-4 0  9997,2 52454  53.2152 124.8420 0001255  89.8956 270.2180 15.08842811 52857,6917.872,95.437,540.605,538.869,0.0
52454.0,STARLINK-3888,PAYLOAD,2023-04-20 11:56:23,15.08855849,0.0001262,53.2151,121.5707,89.2757,270.8379,0.00026776,3.978e-05,0.0,0 STARLINK-3888,1 52454U 22049D   23110.49749201  .00003978  00000-0  26776-3 0  9998,2 52454  53.2151 121.5707 0001262  89.2757 270.8379 15.08855849 52962,6917.832,95.437,540.57,538.824,0.0
52454.0,STARLINK-3888,PAYLOAD,2023-04-20 18:17:57,15.08837664,0.0001321,53.2156,120.3832,81.3454,278.7688,7.9297e-05,9.74e-06,0.0,0 STARLINK-3888,1 52454U 22049D   23110.76246813  .00000974  00000-0  79297-4 0  9999,2 52454  53.2156 120.3832 0001321  81.3454 278.7688 15.08837664 53007,6917.888,95.438,540.666,538.839,0.0
52454.0,STARLINK-3888,PAYLOAD,2023-04-21 11:47:12,15.08835864,0.0001374,53.2154,117.1104,92.5748,267.5401,1.3156e-05,-7.9e-07,0.0,0 STARLINK-3888,1 52454U 22049D   23111.49111337 -.00000079  00000-0  13156-4 0  9991,2 52454  53.2154 117.1104 0001374  92.5748 267.5401 15.08835864 53110,6917.893,95.438,540.709,538.808,0.0
52454.0,STARLINK-3888,PAYLOAD,2023-04-22 11:37:58,15.08849826,0.0001346,53.2156,112.6496,102.4604,257.6538,-4.2425e-06,-3.55e-06,0.0,0 STARLINK-3888,1 52454U 22049D   23112.48470354 -.00000355  00000-0 -42425-5 0  9998,2 52454  53.2156 112.6496 0001346 102.4604 257.6538 15.08849826 53425,6917.85,95.437,540.646,538.784,0.0
52454.0,STARLINK-3888,PAYLOAD,2023-04-23 11:28:46,15.08835392,0.000134,53.2162,108.189,101.3752,258.739,0.00012105,1.639e-05,0.0,0 STARLINK-3888,1 52454U 22049D   23113.47831340  .00001639  00000-0  12105-3 0  9998,2 52454  53.2162 108.1890 0001340 101.3752 258.7390 15.08835392 53416,6917.894,95.438,540.686,538.832,0.0
52454.0,STARLINK-3888,PAYLOAD,2023-04-24 09:44:09,15.08848736,0.0001544,53.2169,104.0253,92.5472,267.5697,0.00047055,7.211e-05,0.0,0 STARLINK-3888,1 52454U 22049D   23114.40566792  .00007211  00000-0  47055-3 0  9992,2 52454  53.2169 104.0253 0001544  92.5472 267.5697 15.08848736 53556,6917.854,95.437,540.787,538.651,0.0
52454.0,STARLINK-3888,PAYLOAD,2023-04-25 11:10:19,15.08845992,0.0001516,53.2184,99.2666,84.8334,275.2832,9.2188e-05,1.18e-05,0.0,0 STARLINK-3888,1 52454U 22049D   23115.46550546  .00001180  00000-0  92188-4 0  9996,2 52454  53.2184  99.2666 0001516  84.8334 275.2832 15.08845992 53712,6917.862,95.437,540.776,538.678,0.0
52454.0,STARLINK-3888,PAYLOAD,2023-04-26 11:01:08,15.0882835,0.0001472,53.2184,94.8063,86.3663,273.7497,-5.2452e-05,-1.122e-05,0.0,0 STARLINK-3888,1 52454U 22049D   23116.45912557 -.00001122  00000-0 -52452-4 0  9998,2 52454  53.2184  94.8063 0001472  86.3663 273.7497 15.08828350 53862,6917.916,95.438,540.799,538.763,0.0
52454.0,STARLINK-3888,PAYLOAD,2023-04-26 15:47:17,15.08832005,0.0001419,53.2183,93.9143,89.8985,270.217,-1.8292e-05,-5.79e-06,0.0,0 STARLINK-3888,1 52454U 22049D   23116.65784317 -.00000579  00000-0 -18292-4 0  9990,2 52454  53.2183  93.9143 0001419  89.8985 270.2170 15.08832005 53891,6917.905,95.438,540.751,538.788,0.0
52454.0,STARLINK-3888,PAYLOAD,2023-04-27 04:30:22,15.08839724,0.0001142,53.2167,91.5379,97.2792,262.833,3.763e-05,3.11e-06,0.0,0 STARLINK-3888,1 52454U 22049D   23117.18775814  .00000311  00000-0  37630-4 0  9990,2 52454  53.2167  91.5379 0001142  97.2792 262.8330 15.08839724 54138,6917.881,95.438,540.536,538.956,0.0
52454.0,STARLINK-3888,PAYLOAD,2023-04-27 07:41:08,15.08842517,0.0001202,53.2172,90.9423,96.9669,263.146,7.2697e-05,8.69e-06,0.0,0 STARLINK-3888,1 52454U 22049D   23117.32023615  .00000869  00000-0  72697-4 0  9991,2 52454  53.2172  90.9423 0001202  96.9669 263.1460 15.08842517 53998,6917.873,95.437,540.569,538.906,0.0
52454.0,STARLINK-3888,PAYLOAD,2023-04-28 04:21:08,15.0884548,0.0001175,53.2166,87.0766,91.5507,268.562,0.00027598,4.108e-05,0.0,0 STARLINK-3888,1 52454U 22049D   23118.18135353  .00004108  00000-0  27598-3 0  9998,2 52454  53.2166  87.0766 0001175  91.5507 268.5620 15.08845480 54124,6917.864,95.437,540.541,538.916,0.0
52454.0,STARLINK-3888,PAYLOAD,2023-04-28 15:28:51,15.08844241,0.0001217,53.2162,84.9956,84.2046,275.9085,0.00021002,3.057e-05,0.0,0 STARLINK-3888,1 52454U 22049D   23118.64503873  .00003057  00000-0  21002-3 0  9991,2 52454  53.2162  84.9956 0001217  84.2046 275.9085 15.08844241 54357,6917.867,95.437,540.574,538.891,0.0
52454.0,STARLINK-3888,PAYLOAD,2023-04-29 07:22:42,15.08848022,0.0001127,53.2158,82.021,96.0358,264.0763,0.00011263,1.506e-05,0.0,0 STARLINK-3888,1 52454U 22049D   23119.30743483  .00001506  00000-0  11263-3 0  9993,2 52454  53.2158  82.0210 0001127  96.0358 264.0763 15.08848022 54297,6917.856,95.437,540.501,538.941,0.0
52454.0,STARLINK-3888,PAYLOAD,2023-04-30 00:51:56,15.08843371,0.0001078,53.2151,78.7493,94.7353,265.3762,-1.2846e-05,-4.92e-06,0.0,0 STARLINK-3888,1 52454U 22049D   23120.03607568 -.00000492  00000-0 -12846-4 0  9992,2 52454  53.2151  78.7493 0001078  94.7353 265.3762 15.08843371 54565,6917.87,95.437,540.481,538.989,0.0
52454.0,STARLINK-3888,PAYLOAD,2023-04-30 07:13:29,15.08845173,0.0001086,53.2151,77.5597,95.1816,264.93,2.2748e-05,7.4e-07,0.0,0 STARLINK-3888,1 52454U 22049D   23120.30103406  .00000074  00000-0  22748-4 0  9990,2 52454  53.2151  77.5597 0001086  95.1816 264.9300 15.08845173 54447,6917.865,95.437,540.481,538.978,0.0
52454.0,STARLINK-3888,PAYLOAD,2023-05-01 05:28:53,15.08835626,0.0001124,53.2161,73.3963,104.7684,255.3433,-1.659e-05,-5.52e-06,0.0,0 STARLINK-3888,1 52454U 22049D   23121.22840105 -.00000552  00000-0 -16590-4 0  9997,2 52454  53.2161  73.3963 0001124 104.7684 255.3433 15.08835626 54748,6917.894,95.438,540.536,538.981,0.0
52454.0,STARLINK-3888,PAYLOAD,2023-05-02 06:55:03,15.08847928,0.0001212,53.2172,68.6398,115.3457,244.7661,0.00017354,2.476e-05,0.0,0 STARLINK-3888,1 52454U 22049D   23122.28823657  .00002476  00000-0  17354-3 0  9990,2 52454  53.2172  68.6398 0001212 115.3457 244.7661 15.08847928 54904,6917.856,95.437,540.56,538.883,0.0
52454.0,STARLINK-3888,PAYLOAD,2023-05-02 13:16:36,15.08842139,0.0001077,53.2168,67.4505,85.4681,274.6434,7.82e-05,9.57e-06,0.0,0 STARLINK-3888,1 52454U 22049D   23122.55319972  .00000957  00000-0  78200-4 0  9990,2 52454  53.2168  67.4505 0001077  85.4681 274.6434 15.08842139 54944,6917.874,95.437,540.484,538.994,0.0
52454.0,STARLINK-3888,PAYLOAD,2023-05-03 03:35:04,15.08840408,0.0001051,53.2181,64.775,91.5014,268.6098,9.3319e-05,1.198e-05,0.0,0 STARLINK-3888,1 52454U 22049D   23123.14936342  .00001198  00000-0  93319-4 0  9998,2 52454  53.2181  64.7750 0001051  91.5014 268.6098 15.08840408 54879,6917.879,95.438,540.471,539.017,0.0
52454.0,STARLINK-3888,PAYLOAD,2023-05-03 19:28:56,15.08844316,0.0001192,53.2183,61.8019,95.481,264.6318,1.7807e-05,-4e-08,0.0,0 STARLINK-3888,1 52454U 22049D   23123.81176349 -.00000004  00000-0  17807-4 0  9999,2 52454  53.2183  61.8019 0001192  95.4810 264.6318 15.08844316 55133,6917.867,95.437,540.557,538.908,0.0
52454.0,STARLINK-3888,PAYLOAD,2023-05-04 05:01:14,15.08850033,0.0001077,53.2179,60.0177,103.8271,256.2841,4.3606e-05,4.06e-06,0.0,0 STARLINK-3888,1 52454U 22049D   23124.20919712  .00000406  00000-0  43606-4 0  9993,2 52454  53.2179  60.0177 0001077 103.8271 256.2841 15.08850033 55031,6917.85,95.437,540.46,538.97,0.0
52454.0,STARLINK-3888,PAYLOAD,2023-05-04 19:19:43,15.08840347,0.000115,53.2179,57.3412,90.0382,270.0742,4.5131e-05,4.31e-06,0.0,0 STARLINK-3888,1 52454U 22049D   23124.80536321  .00000431  00000-0  45131-4 0  9993,2 52454  53.2179  57.3412 0001150  90.0382 270.0742 15.08840347 55125,6917.879,95.438,540.54,538.949,0.0
52454.0,STARLINK-3888,PAYLOAD,2023-05-05 00:05:52,15.08839218,0.0001095,53.2191,56.4498,94.5807,265.5311,6.0972e-05,6.83e-06,0.0,0 STARLINK-3888,1 52454U 22049D   23125.00408354  .00000683  00000-0  60972-4 0  9999,2 52454  53.2191  56.4498 0001095  94.5807 265.5311 15.08839218 55319,6917.883,95.438,540.505,538.99,0.0
52454.0,STARLINK-3888,PAYLOAD,2023-05-05 04:52:01,15.0884434,0.000108,53.2173,55.556,92.4181,267.6935,7.7513e-05,9.46e-06,0.0,0 STARLINK-3888,1 52454U 22049D   23125.20279939  .00000946  00000-0  77513-4 0  9997,2 52454  53.2173  55.5560 0001080  92.4181 267.6935 15.08844340 55187,6917.867,95.437,540.479,538.985,0.0
52454.0,STARLINK-3888,PAYLOAD,2023-05-06 01:32:03,15.08838177,0.0001224,53.2192,51.6877,112.6813,247.4309,2.5458e-06,-2.47e-06,0.0,0 STARLINK-3888,1 52454U 22049D   23126.06392588 -.00000247  00000-0  25458-5 0  9995,2 52454  53.2192  51.6877 0001224 112.6813 247.4309 15.08838177 55477,6917.886,95.438,540.598,538.904,0.0
52454.0,STARLINK-3888,PAYLOAD,2023-05-07 01:22:48,15.08856358,0.0001177,53.2179,47.2285,95.4599,264.6527,0.00017312,2.47e-05,0.0,0 STARLINK-3888,1 52454U 22049D   23127.05751116  .00002470  00000-0  17312-3 0  9998,2 52454  53.2179  47.2285 0001177  95.4599 264.6527 15.08856358 55623,6917.83,95.437,540.51,538.881,0.0
52454.0,STARLINK-3888,PAYLOAD,2023-05-07 04:33:35,15.08858739,0.0001153,53.218,46.6336,94.1477,265.9647,0.00018349,2.635e-05,0.0,0 STARLINK-3888,1 52454U 22049D   23127.18998957  .00002635  00000-0  18349-3 0  9992,2 52454  53.2180  46.6336 0001153  94.1477 265.9647 15.08858739 55486,6917.823,95.436,540.486,538.89,0.0
